STARLINK-1243_new
1 15234C 20012BJ  21326.16822697 -.00015939  00000-0 -10679-2 0  3266
2 15234  53.0525 247.9827 0002055  63.1291  26.9904 15.06416245    18
STARLINK-1243_old
1 25234C 20012BJ  21325.10433161  .00005641  00000-0  37797-3 0  3250
2 25234  53.0529 252.7585 0002053  61.7636  15.6097 15.06393646    19
